H1 CPF  1  HTS 2022 11 28 12  8321 larets           NONE
H2  0304206 5557    27944 2022 11 28  0  0  0 2022 12 03  0  0  0   180 1 1  0 0 0
H5  0.0560 
H9 
10 0 59914  82440.00000  0   -1974805.315    -841395.243   -6741703.691
10 0 59914  82620.00000  0   -1149108.090     212503.776   -6979168.158
10 0 59914  82800.00000  0    -254783.589    1236182.648   -6963650.358
10 0 59914  82980.00000  0     674687.872    2191453.025   -6695783.097
10 0 59914  83160.00000  0    1603604.007    3043466.680   -6185196.278
10 0 59914  83340.00000  0    2495375.021    3761960.049   -5450206.941
10 0 59914  83520.00000  0    3313932.478    4322322.731   -4517224.688
10 0 59914  83700.00000  0    4025170.434    4706460.408   -3419881.751
10 0 59914  83880.00000  0    4598368.870    4903417.280   -2197891.823
10 0 59914  84060.00000  0    5007534.895    4909721.181    -895659.481
10 0 59914  84240.00000  0    5232595.808    4729429.310     439317.589
10 0 59914  84420.00000  0    5260374.214    4373861.503    1758196.322
10 0 59914  84600.00000  0    5085295.780    3861032.610    3012610.105
10 0 59914  84780.00000  0    4709785.288    3214801.484    4156492.767
10 0 59914  84960.00000  0    4144319.324    2463779.315    5147813.064
10 0 59914  85140.00000  0    3407140.735    1640059.107    5950143.992
10 0 59914  85320.00000  0    2523643.486     777830.184    6534007.182
10 0 59914  85500.00000  0    1525467.526     -88056.669    6877939.297
10 0 59914  85680.00000  0     449343.740    -923504.893    6969265.277
10 0 59914  85860.00000  0    -664276.069   -1696524.971    6804559.082
10 0 59914  86040.00000  0   -1772754.029   -2378472.734    6389772.307
10 0 59914  86220.00000  0   -2832907.566   -2945125.469    5740032.319
10 0 59915      0.00000  0   -3802708.988   -3377564.873    4879126.371
10 0 59915    180.00000  0   -4642993.428   -3662837.621    3838658.040
10 0 59915    360.00000  0   -5319085.812   -3794356.226    2656893.855
10 0 59915    540.00000  0   -5802278.141   -3772026.385    1377345.946
10 0 59915    720.00000  0   -6071086.032   -3602092.018      47130.498
10 0 59915    900.00000  0   -6112211.458   -3296698.956   -1284827.699
10 0 59915   1080.00000  0   -5921159.461   -2873202.354   -2569663.227
10 0 59915   1260.00000  0   -5502472.127   -2353255.326   -3760417.209
10 0 59915   1440.00000  0   -4869581.971   -1761737.399   -4813774.414
10 0 59915   1620.00000  0   -4044305.373   -1125583.051   -5691622.643
10 0 59915   1800.00000  0   -3056011.084    -472570.448   -6362380.102
10 0 59915   1980.00000  0   -1940513.574     169871.301   -6802051.383
10 0 59915   2160.00000  0    -738746.789     775783.249   -6994997.199
10 0 59915   2340.00000  0     504727.017    1321688.474   -6934415.771
10 0 59915   2520.00000  0    1743326.801    1787468.248   -6622544.814
10 0 59915   2700.00000  0    2930148.732    2157081.366   -6070586.644
10 0 59915   2880.00000  0    4019700.529    2419106.961   -5298344.068
10 0 59915   3060.00000  0    4969619.602    2567093.834   -4333577.572
10 0 59915   3240.00000  0    5742327.661    2599707.204   -3211085.952
10 0 59915   3420.00000  0    6306552.556    2520662.410   -1971519.727
10 0 59915   3600.00000  0    6638652.616    2338444.616    -659953.567
10 0 59915   3780.00000  0    6723668.097    2065818.825     675744.074
10 0 59915   3960.00000  0    6556034.863    1719148.483    1986679.033
10 0 59915   4140.00000  0    6139921.148    1317557.847    3224759.428
10 0 59915   4320.00000  0    5489159.180     881976.180    4344510.235
10 0 59915   4500.00000  0    4626768.223     434115.589    5304783.451
10 0 59915   4680.00000  0    3584101.201      -4562.443    6070290.934
10 0 59915   4860.00000  0    2399654.381    -413842.004    6612902.814
10 0 59915   5040.00000  0    1117604.435    -775658.732    6912665.798
10 0 59915   5220.00000  0    -213869.501   -1074884.274    6958524.153
10 0 59915   5400.00000  0   -1544419.260   -1299957.507    6748717.008
10 0 59915   5580.00000  0   -2823444.954   -1443337.626    6290846.794
10 0 59915   5760.00000  0   -4002033.750   -1501761.125    5601625.896
10 0 59915   5940.00000  0   -5034868.187   -1476299.717    4706302.726
10 0 59915   6120.00000  0   -5882026.726   -1372215.606    3637759.280
10 0 59915   6300.00000  0   -6510590.344   -1198614.069    2435307.278
10 0 59915   6480.00000  0   -6895987.062    -967911.259    1143228.184
10 0 59915   6660.00000  0   -7023007.998    -695142.694    -190902.733
10 0 59915   6840.00000  0   -6886425.069    -397146.325   -1518033.736
10 0 59915   7020.00000  0   -6491181.369     -91665.776   -2789504.524
10 0 59915   7200.00000  0   -5852154.498     203574.928   -3958876.767
10 0 59915   7380.00000  0   -4993509.567     471778.500   -4983650.960
10 0 59915   7560.00000  0   -3947685.604     697915.623   -5826788.555
10 0 59915   7740.00000  0   -2754084.683     869458.753   -6457989.968
10 0 59915   7920.00000  0   -1457535.127     976976.413   -6854698.187
10 0 59915   8100.00000  0    -106597.465    1014571.569   -7002818.028
10 0 59915   8280.00000  0    1248224.453     980150.553   -6897147.019
10 0 59915   8460.00000  0    2556317.806     875516.428   -6541531.977
10 0 59915   8640.00000  0    3768801.712     706285.335   -5948739.925
10 0 59915   8820.00000  0    4840314.675     481627.624   -5140042.645
10 0 59915   9000.00000  0    5730700.569     213840.959   -4144525.623
10 0 59915   9180.00000  0    6406541.355     -82230.984   -2998119.682
10 0 59915   9360.00000  0    6842469.466    -389915.683   -1742370.347
10 0 59915   9540.00000  0    7022199.515    -691535.831    -422970.709
10 0 59915   9720.00000  0    6939214.179    -969301.334     911896.852
10 0 59915   9900.00000  0    6597061.773   -1206226.969    2213344.271
10 0 59915  10080.00000  0    6009238.950   -1387027.594    3433613.624
10 0 59915  10260.00000  0    5198653.865   -1498940.516    4527878.230
10 0 59915  10440.00000  0    4196702.269   -1532433.701    5455924.474
10 0 59915  10620.00000  0    3042005.378   -1481759.478    6183646.995
10 0 59915  10800.00000  0    1778872.341   -1345329.749    6684301.221
10 0 59915  10980.00000  0     455559.756   -1125897.953    6939472.559
10 0 59915  11160.00000  0    -877602.210    -830536.622    6939737.896
10 0 59915  11340.00000  0   -2170141.482    -470411.221    6685003.030
10 0 59915  11520.00000  0   -3373367.613     -60357.778    6184517.255
10 0 59915  11700.00000  0   -4442229.806     381723.284    5456564.488
10 0 59915  11880.00000  0   -5337048.659     835635.637    4527826.539
10 0 59915  12060.00000  0   -6025049.979    1279789.591    3432425.834
10 0 59915  12240.00000  0   -6481629.970    1692201.540    2210673.483
10 0 59915  12420.00000  0   -6691294.134    2051542.740     907564.855
10 0 59915  12600.00000  0   -6648220.659    2338185.271    -428925.738
10 0 59915  12780.00000  0   -6356408.668    2535187.404   -1749677.357
10 0 59915  12960.00000  0   -5829407.223    2629165.072   -3006290.912
10 0 59915  13140.00000  0   -5089643.103    2611005.856   -4152910.069
10 0 59915  13320.00000  0   -4167390.234    2476385.884   -5147905.879
10 0 59915  13500.00000  0   -3099452.364    2226071.648   -5955355.335
10 0 59915  13680.00000  0   -1927637.912    1866002.177   -6546270.247
10 0 59915  13860.00000  0    -697096.837    1407152.901   -6899554.485
10 0 59915  14040.00000  0     545409.430     865191.140   -7002670.274
10 0 59915  14220.00000  0    1753242.365     259942.172   -6852022.560
10 0 59915  14400.00000  0    2881587.806    -385321.039   -6453063.542
10 0 59915  14580.00000  0    3889074.016   -1044745.714   -5820109.465
10 0 59915  14760.00000  0    4739261.540   -1690899.000   -4975877.199
10 0 59915  14940.00000  0    5401966.492   -2295875.130   -3950745.463
10 0 59915  15120.00000  0    5854369.770   -2832473.106   -2781739.117
10 0 59915  15300.00000  0    6081862.440   -3275395.789   -1511252.831
10 0 59915  15480.00000  0    6078580.209   -3602416.520    -185545.593
10 0 59915  15660.00000  0    5847592.787   -3795455.770    1146942.941
10 0 59915  15840.00000  0    5400728.001   -3841510.598    2437391.924
10 0 59915  16020.00000  0    4758025.204   -3733378.976    3638436.532
10 0 59915  16200.00000  0    3946847.633   -3470137.781    4705950.472
10 0 59915  16380.00000  0    3000702.802   -3057353.390    5600701.412
10 0 59915  16560.00000  0    1957825.187   -2507010.539    6289808.376
10 0 59915  16740.00000  0     859597.269   -1837164.573    6747945.277
10 0 59915  16920.00000  0    -251120.383   -1071336.647    6958255.395
10 0 59915  17100.00000  0   -1331679.528    -237673.923    6912955.289
10 0 59915  17280.00000  0   -2341293.154     632094.862    6613618.014
10 0 59915  17460.00000  0   -3242589.662    1503874.262    6071130.780
10 0 59915  17640.00000  0   -4003020.963    2342546.914    5305325.055
10 0 59915  17820.00000  0   -4596077.230    3113403.475    4344283.026
10 0 59915  18000.00000  0   -5002258.471    3783602.575    3223326.379
10 0 59915  18180.00000  0   -5209755.728    4323594.353    1983716.199
10 0 59915  18360.00000  0   -5214809.320    4708443.970     671107.967
10 0 59915  18540.00000  0   -5021720.676    4918980.833    -666183.143
10 0 59915  18720.00000  0   -4642517.540    4942710.411   -1979025.874
10 0 59915  18900.00000  0   -4096286.508    4774442.590   -3219343.815
10 0 59915  19080.00000  0   -3408214.177    4416598.509   -4341917.673
10 0 59915  19260.00000  0   -2608398.374    3879191.806   -5306033.811
10 0 59915  19440.00000  0   -1730505.639    3179503.354   -6076917.278
10 0 59915  19620.00000  0    -810342.337    2341475.131   -6626917.770
10 0 59915  19800.00000  0     115600.688    1394850.851   -6936416.719
10 0 59915  19980.00000  0    1011567.320     374109.014   -6994445.409
10 0 59915  20160.00000  0    1843878.088    -682775.504   -6799020.426
10 0 59915  20340.00000  0    2582157.684   -1735708.790   -6357191.240
99
